{
  "norad_id": 68229,
  "name": "STARLINK-37081",
  "history": [
    {
      "epoch": "2026-03-28T22:00:01.999584Z",
      "apogee_km": 328.3378671753817,
      "perigee_km": 326.027348144974,
      "latitude_deg": 60.287999253237196,
      "longitude_deg": -0.3303594315651896,
      "height_km": 336.3929408443146,
      "semi_major_axis_km": 6705.319607660177,
      "eccentricity": 0.00017229,
      "inclination_deg": 97.2805,
      "raan_deg": 323.1457,
      "arg_perigee_deg": 103.1873,
      "mean_anomaly_deg": 15.7989,
      "mean_motion_rev_day": 15.81151692
    },
    {
      "epoch": "2026-03-29T04:00:01.999584Z",
      "apogee_km": 331.19555247156404,
      "perigee_km": 328.90537727105675,
      "latitude_deg": 77.24013086712479,
      "longitude_deg": -69.04354549125446,
      "height_km": 342.00314263638137,
      "semi_major_axis_km": 6708.18746487131,
      "eccentricity": 0.0001707,
      "inclination_deg": 97.2819,
      "raan_deg": 323.4103,
      "arg_perigee_deg": 102.0772,
      "mean_anomaly_deg": 358.5015,
      "mean_motion_rev_day": 15.80137849
    },
    {
      "epoch": "2026-03-30T04:00:01.999584Z",
      "apogee_km": 344.19785174947356,
      "perigee_km": 341.948934751892,
      "latitude_deg": 17.465120438842288,
      "longitude_deg": 74.60309924798017,
      "height_km": 345.4874863384693,
      "semi_major_axis_km": 6721.2103932506825,
      "eccentricity": 0.0001673,
      "inclination_deg": 97.2837,
      "raan_deg": 324.4655,
      "arg_perigee_deg": 100.3143,
      "mean_anomaly_deg": 277.3283,
      "mean_motion_rev_day": 15.75547593
    },
    {
      "epoch": "2026-03-30T06:00:02.000160Z",
      "apogee_km": 344.90394085314165,
      "perigee_km": 342.7437715123988,
      "latitude_deg": 49.52352684918615,
      "longitude_deg": -124.5339776204877,
      "height_km": 350.96307120283757,
      "semi_major_axis_km": 6721.96085618277,
      "eccentricity": 0.00016068,
      "inclination_deg": 97.2836,
      "raan_deg": 324.5538,
      "arg_perigee_deg": 88.035,
      "mean_anomaly_deg": 41.9881,
      "mean_motion_rev_day": 15.75283751
    },
    {
      "epoch": "2026-03-30T14:00:03.000384Z",
      "apogee_km": 345.2968713595501,
      "perigee_km": 343.1311987500967,
      "latitude_deg": -39.00403971491236,
      "longitude_deg": 101.01163231248519,
      "height_km": 359.8390339698706,
      "semi_major_axis_km": 6722.351035054823,
      "eccentricity": 0.00016108,
      "inclination_deg": 97.2837,
      "raan_deg": 324.9054,
      "arg_perigee_deg": 94.1535,
      "mean_anomaly_deg": 124.9292,
      "mean_motion_rev_day": 15.75146604
    },
    {
      "epoch": "2026-03-30T22:00:00.999936Z",
      "apogee_km": 345.21291623183424,
      "perigee_km": 343.0349036970056,
      "latitude_deg": -51.787260972072055,
      "longitude_deg": 176.23808520871663,
      "height_km": 365.3052625815526,
      "semi_major_axis_km": 6722.26090996442,
      "eccentricity": 0.000162,
      "inclination_deg": 97.2841,
      "raan_deg": 325.2529,
      "arg_perigee_deg": 103.7882,
      "mean_anomaly_deg": 204.1003,
      "mean_motion_rev_day": 15.75178281
    },
    {
      "epoch": "2026-03-31T20:00:01.999008Z",
      "apogee_km": 344.62814931406774,
      "perigee_km": 342.73259681486434,
      "latitude_deg": 75.58424592604143,
      "longitude_deg": 46.64097739147047,
      "height_km": 355.7416791583392,
      "semi_major_axis_km": 6721.817373064466,
      "eccentricity": 0.000141,
      "inclination_deg": 97.2848,
      "raan_deg": 326.2164,
      "arg_perigee_deg": 75.8544,
      "mean_anomaly_deg": 26.6865,
      "mean_motion_rev_day": 15.7533419
    },
    {
      "epoch": "2026-04-01T20:00:01.999008Z",
      "apogee_km": 345.08699892824006,
      "perigee_km": 343.0783996820883,
      "latitude_deg": 9.217561425775505,
      "longitude_deg": -164.11674807421778,
      "height_km": 346.38438772517674,
      "semi_major_axis_km": 6722.219699305164,
      "eccentricity": 0.0001494,
      "inclination_deg": 97.2862,
      "raan_deg": 327.2645,
      "arg_perigee_deg": 91.523,
      "mean_anomaly_deg": 277.852,
      "mean_motion_rev_day": 15.75192766
    },
    {
      "epoch": "2026-04-02T20:00:01.999008Z",
      "apogee_km": 344.7243256000447,
      "perigee_km": 343.0626396647376,
      "latitude_deg": -80.47597901018624,
      "longitude_deg": -113.61651860151534,
      "height_km": 372.8879123520454,
      "semi_major_axis_km": 6722.030482632391,
      "eccentricity": 0.0001236,
      "inclination_deg": 97.2841,
      "raan_deg": 328.3151,
      "arg_perigee_deg": 94.2118,
      "mean_anomaly_deg": 182.0425,
      "mean_motion_rev_day": 15.75259276
    },
    {
      "epoch": "2026-04-02T22:00:01.999584Z",
      "apogee_km": 345.04204736841893,
      "perigee_km": 343.204315879967,
      "latitude_deg": 28.305547064912595,
      "longitude_deg": 163.20797403513657,
      "height_km": 347.80301325464995,
      "semi_major_axis_km": 6722.260181624193,
      "eccentricity": 0.00013669,
      "inclination_deg": 97.2862,
      "raan_deg": 328.4011,
      "arg_perigee_deg": 117.9802,
      "mean_anomaly_deg": 270.5447,
      "mean_motion_rev_day": 15.75178537
    },
    {
      "epoch": "2026-04-03T19:13:34.449888Z",
      "apogee_km": 345.0732247579863,
      "perigee_km": 343.11839945622523,
      "latitude_deg": -5.3580179889564635e-05,
      "longitude_deg": -151.194528735451,
      "height_km": 347.63115406625104,
      "semi_major_axis_km": 6722.232812107105,
      "eccentricity": 0.0001454,
      "inclination_deg": 97.2835,
      "raan_deg": 329.3292,
      "arg_perigee_deg": 112.183,
      "mean_anomaly_deg": 247.9589,
      "mean_motion_rev_day": 15.75188157
    },
    {
      "epoch": "2026-04-04T19:37:15.107808Z",
      "apogee_km": 345.7917479248954,
      "perigee_km": 343.2653702077987,
      "latitude_deg": 5.402141094297622e-05,
      "longitude_deg": -157.04960294331778,
      "height_km": 347.8126423168741,
      "semi_major_axis_km": 6722.665559066347,
      "eccentricity": 0.0001879,
      "inclination_deg": 97.2843,
      "raan_deg": 330.3954,
      "arg_perigee_deg": 95.4043,
      "mean_anomaly_deg": 264.7437,
      "mean_motion_rev_day": 15.75036064
    },
    {
      "epoch": "2026-04-05T13:55:00.002496Z",
      "apogee_km": 345.072243377027,
      "perigee_km": 342.6533989613781,
      "latitude_deg": -7.144912386081804e-06,
      "longitude_deg": -71.43803955501926,
      "height_km": 346.69087139268265,
      "semi_major_axis_km": 6721.999821169203,
      "eccentricity": 0.00017992,
      "inclination_deg": 97.2849,
      "raan_deg": 331.1954,
      "arg_perigee_deg": 73.7955,
      "mean_anomaly_deg": 286.3508,
      "mean_motion_rev_day": 15.75270054
    },
    {
      "epoch": "2026-04-05T21:32:23.285472Z",
      "apogee_km": 344.97170100472977,
      "perigee_km": 342.6889209059291,
      "latitude_deg": -6.840073557906854e-05,
      "longitude_deg": 174.2350842669977,
      "height_km": 346.83126504532277,
      "semi_major_axis_km": 6721.967310955329,
      "eccentricity": 0.0001698,
      "inclination_deg": 97.2847,
      "raan_deg": 331.5286,
      "arg_perigee_deg": 81.7005,
      "mean_anomaly_deg": 278.4452,
      "mean_motion_rev_day": 15.75281482
    },
    {
      "epoch": "2026-04-06T05:09:47.652768Z",
      "apogee_km": 344.8921765380146,
      "perigee_km": 343.36124820015993,
      "latitude_deg": 3.073947857577475e-05,
      "longitude_deg": 59.90385718217336,
      "height_km": 347.0015379104397,
      "semi_major_axis_km": 6722.2637123690865,
      "eccentricity": 0.00011387,
      "inclination_deg": 97.2849,
      "raan_deg": 331.862,
      "arg_perigee_deg": 67.5963,
      "mean_anomaly_deg": 292.5423,
      "mean_motion_rev_day": 15.75177296
    },
    {
      "epoch": "2026-04-07T17:45:18.612000Z",
      "apogee_km": 344.67585099399184,
      "perigee_km": 343.1660767753028,
      "latitude_deg": 2.9580213012138223e-05,
      "longitude_deg": -128.87872088113156,
      "height_km": 347.1900670627607,
      "semi_major_axis_km": 6722.057963884647,
      "eccentricity": 0.0001123,
      "inclination_deg": 97.2842,
      "raan_deg": 333.4612,
      "arg_perigee_deg": 97.7981,
      "mean_anomaly_deg": 262.3412,
      "mean_motion_rev_day": 15.75249616
    },
    {
      "epoch": "2026-04-08T15:06:01.545120Z",
      "apogee_km": 344.6122513727787,
      "perigee_km": 343.39433399455174,
      "latitude_deg": -2.0379739419454196e-05,
      "longitude_deg": -89.00122388266158,
      "height_km": 347.0973972380509,
      "semi_major_axis_km": 6722.140292683665,
      "eccentricity": 9.059e-05,
      "inclination_deg": 97.2849,
      "raan_deg": 334.3942,
      "arg_perigee_deg": 83.1315,
      "mean_anomaly_deg": 277.0053,
      "mean_motion_rev_day": 15.75220677
    },
    {
      "epoch": "2026-04-09T21:35:37.052160Z",
      "apogee_km": 345.0736022227293,
      "perigee_km": 342.61806189417894,
      "latitude_deg": -6.169329742365571e-06,
      "longitude_deg": 173.68211347167522,
      "height_km": 347.3962523364591,
      "semi_major_axis_km": 6721.982832058454,
      "eccentricity": 0.00018265,
      "inclination_deg": 97.2855,
      "raan_deg": 335.7278,
      "arg_perigee_deg": 108.2609,
      "mean_anomaly_deg": 251.8855,
      "mean_motion_rev_day": 15.75276026
    },
    {
      "epoch": "2026-04-11T14:45:34.501824Z",
      "apogee_km": 344.9585258647385,
      "perigee_km": 342.9943243219259,
      "latitude_deg": -5.811783556353068e-05,
      "longitude_deg": -83.69828299048356,
      "height_km": 347.14978934502216,
      "semi_major_axis_km": 6722.113425093332,
      "eccentricity": 0.0001461,
      "inclination_deg": 97.2848,
      "raan_deg": 337.5274,
      "arg_perigee_deg": 90.4268,
      "mean_anomaly_deg": 269.7164,
      "mean_motion_rev_day": 15.75230121
    }
  ]
}